[Satellite]
VERSION=1.1
NAME=GPS BIIF-3
NICKNAME=GPS BIIF-3
TLE1=1 38833U 12053A   17185.64442277 -.00000052  00000-0  00000-0 0  9992
TLE2=2 38833  54.1427 277.8550 0055907  25.5515 334.7643  2.00562028 33970
